OBJECT_NAME,OBJECT_ID,EPOCH,MEAN_MOTION,ECCENTRICITY,INCLINATION,RA_OF_ASC_NODE,ARG_OF_PERICENTER,MEAN_ANOMALY,EPHEMERIS_TYPE,CLASSIFICATION_TYPE,NORAD_CAT_ID,ELEMENT_SET_NO,REV_AT_EPOCH,BSTAR,MEAN_MOTION_DOT,MEAN_MOTION_DDOT
LARES-2,2022-080A,2026-05-07T03:52:33.796992,6.38965197,.0005357,70.1704,319.3995,343.8104,16.2342,0,U,53105,999,8904,0,-.8E-7,0
GREENCUBE (IO-117),2022-080E,2026-05-12T13:02:43.634112,6.42583333,.00088617,70.1440,310.6463,297.7055,62.2705,0,U,53109,999,8977,0,-.3E-7,0
STARLINK-4410,2022-084R,2026-05-12T16:00:01.999584,15.16223624,.00024015,97.6008,193.2690,81.7832,143.9222,0,U,53204,999,579,.19076973E-2,.36965E-3,0
COSMOS 2558,2022-089A,2026-05-12T04:06:33.147072,15.68637845,.0002707,97.2245,234.9647,175.8225,184.3060,0,U,53323,999,21217,.47129E-3,.53613E-3,0
TECMS,2022-090A,2026-05-12T15:24:36.368640,15.21432929,.00017693,97.3153,201.7533,345.1185,14.9998,0,U,53346,999,20940,.1037122E-3,.2261E-4,0
DONGPO 02,2022-098J,2026-05-12T15:21:30.935232,15.68386263,.00025324,97.5469,260.9527,122.6257,237.5249,0,U,53452,999,20921,.51987671E-3,.5858E-3,0
DONGPO 01,2022-098K,2026-05-12T14:07:58.005984,15.66808852,.00008497,97.5533,261.4969,150.8910,209.2397,0,U,53453,999,20917,.47745319E-3,.50407E-3,0
STARLINK-4400,2022-099D,2026-05-12T06:58:53.080896,15.05660473,.00007405,97.5036,252.6656,67.4032,292.7274,0,U,53468,999,20554,-.65768982E-4,-.1008E-4,0
STARLINK-4621,2022-105AE,2026-05-12T10:14:17.279232,15.05661551,.00040284,97.5043,12.8048,47.7258,312.4310,0,U,53676,999,20282,-.12559751E-3,-.1872E-4,0
SHERPA-LTC2,2022-107BG,2026-05-11T22:25:21.434304,14.69173968,.0397786,53.2349,13.7515,124.7411,239.1699,0,U,53754,999,19721,.22117E-3,.4227E-4,0
CENTISPACE-1 S3,2022-108A,2026-05-12T15:20:28.834368,14.61219114,.00082479,53.5321,202.2485,246.1082,113.9029,0,U,53757,999,19633,.67602688E-4,.147E-5,0
CENTISPACE-1 S4,2022-108B,2026-05-12T13:43:06.093120,14.61891889,.00080124,53.5295,200.2136,231.4253,128.6005,0,U,53758,999,19635,.86050317E-4,.244E-5,0
BLUEWALKER-3,2022-111AL,2026-05-12T08:59:42.581760,15.37834262,.00073808,53.2287,202.0389,68.6172,291.5620,0,U,53807,999,20469,.84118611E-4,.2782E-4,0
YUNHAI-1 03,2022-115A,2026-05-12T13:40:52.716576,14.32693048,.00054479,98.5537,131.1708,140.2237,219.9347,0,U,53877,999,19041,.11391929E-3,.266E-5,0
CENTISPACE-1 S5,2022-126A,2026-05-12T14:57:24.988896,14.62947781,.00123066,55.0001,355.2685,1.6779,358.4255,0,U,54020,999,19183,.12959194E-3,.48E-5,0
CENTISPACE-1 S6,2022-126B,2026-05-12T14:22:29.055360,14.62237961,.00141559,55.0004,357.0674,0.5215,359.5791,0,U,54021,999,19179,.1121437E-3,.381E-5,0
OTB-3-GAZELLE,2022-127A,2026-05-12T09:51:17.548128,14.42661163,.00120125,98.3941,124.6621,299.7257,60.2737,0,U,54023,999,18920,.40605306E-4,.92E-6,0
ASO-S,2022-129A,2026-05-12T15:04:23.768832,14.52043748,.00138542,98.2756,138.2176,196.8075,163.2663,0,U,54029,999,19026,.37502921E-4,.107E-5,0
HJ-2E,2022-132A,2026-05-12T15:38:27.787200,15.21772101,.00222743,97.3808,137.6843,130.7834,229.5339,0,U,54035,999,19901,.21016804E-3,.4728E-4,0
COSMOS 2561,2022-137A,2026-05-12T03:59:28.529088,15.50778019,.0010979,96.9225,192.5305,150.0386,210.1497,0,U,54109,999,20076,.15592E-3,.8913E-4,0
GONETS-M 23,2022-139A,2026-05-12T14:27:47.797056,12.42889218,.00207939,82.5098,10.4100,301.4303,58.4743,0,U,54150,999,16122,.1794097E-3,.35E-6,0
GONETS-M 24,2022-139B,2026-05-12T15:45:00.729216,12.42889803,.00161731,82.5001,9.4610,312.8003,47.1716,0,U,54151,999,16123,.194175E-3,.37E-6,0
GONETS-M 25,2022-139C,2026-05-12T15:25:21.318240,12.42889035,.00200638,82.5075,10.1366,310.6047,49.3287,0,U,54152,999,16123,.11255672E-3,.25E-6,0
SKIF-D,2022-139D,2026-05-12T16:22:01.528032,5.00438680,.0007416,89.9555,96.6784,214.8823,145.1054,0,U,54153,999,6233,0,.31E-6,0
MATS,2022-147A,2026-05-12T13:12:44.324064,15.05129483,.00115574,97.6827,134.3081,326.9090,33.1412,0,U,54227,999,19240,.20050143E-3,.2796E-4,0
JILIN-1 GAOFEN 03D54,2022-155D,2026-05-12T15:18:30.646944,15.82810350,.00019333,97.6083,281.5171,165.3122,194.8203,0,U,54254,999,19465,.56492211E-3,.120141E-2,0
EOS-6 (OCEANSAT-3),2022-158A,2026-05-12T14:53:03.139008,14.47019282,.00022495,98.3520,231.2901,88.3043,271.8407,0,U,54361,999,18269,.52394264E-4,.147E-5,0
DONGPO 09,2022-167D,2026-05-12T15:25:30.239904,15.35536713,.00014625,97.6875,302.0929,223.2910,136.8218,0,U,54685,999,18999,.20887696E-3,.7128E-4,0
DONGPO 08,2022-167E,2026-05-12T15:03:11.421792,15.32938591,.00069196,97.6835,299.4208,296.1316,63.9213,0,U,54686,999,18987,.20254262E-3,.6363E-4,0
2022-167F,2022-167F,2026-05-12T08:54:44.508672,15.80917289,.00032141,97.6178,316.2148,182.0056,178.1199,0,U,54687,999,19115,.48207289E-3,.93653E-3,0
