LARES-2                 
1 53105U 22080A   26127.16150228 -.00000008  00000+0  00000+0 0  9996
2 53105  70.1704 319.3995 0005357 343.8104  16.2342  6.38965197 89040
GREENCUBE (IO-117)      
1 53109U 22080E   26132.54356058 -.00000003  00000+0  00000+0 0  9992
2 53109  70.1440 310.6463 0008861 297.7055  62.2705  6.42583333 89777
STARLINK-4410           
1 53204U 22084R   26132.66668981  .00036965  00000+0  19077-2 0  9998
2 53204  97.6008 193.2690 0002401  81.7832 143.9222 15.16223624  5798
COSMOS 2558             
1 53323U 22089A   26132.17121698  .00053613  00000+0  47129-3 0  9999
2 53323  97.2245 234.9647 0002707 175.8225 184.3060 15.68637845212176
TECMS                   
1 53346U 22090A   26132.64208760  .00002261  00000+0  10371-3 0  9996
2 53346  97.3153 201.7533 0001769 345.1185  14.9998 15.21432929209405
DONGPO 02               
1 53452U 22098J   26132.63994138  .00058580  00000+0  51988-3 0  9996
2 53452  97.5469 260.9527 0002532 122.6257 237.5249 15.68386263209213
DONGPO 01               
1 53453U 22098K   26132.58886581  .00050407  00000+0  47745-3 0  9999
2 53453  97.5533 261.4969 0000849 150.8910 209.2397 15.66808852209176
STARLINK-4400           
1 53468U 22099D   26132.29089214 -.00001008  00000+0 -65769-4 0  9994
2 53468  97.5036 252.6656 0000740  67.4032 292.7274 15.05660473205549
STARLINK-4621           
1 53676U 22105AE  26132.42658888 -.00001872  00000+0 -12560-3 0  9996
2 53676  97.5043  12.8048 0004028  47.7258 312.4310 15.05661551202820
SHERPA-LTC2             
1 53754U 22107BG  26131.93427586  .00004227  00000+0  22117-3 0  9993
2 53754  53.2349  13.7515 0397786 124.7411 239.1699 14.69173968197217
CENTISPACE-1 S3         
1 53757U 22108A   26132.63922262  .00000147  00000+0  67603-4 0  9993
2 53757  53.5321 202.2485 0008247 246.1082 113.9029 14.61219114196332
CENTISPACE-1 S4         
1 53758U 22108B   26132.57159830  .00000244  00000+0  86050-4 0  9995
2 53758  53.5295 200.2136 0008012 231.4253 128.6005 14.61891889196355
BLUEWALKER-3            
1 53807U 22111AL  26132.37479840  .00002782  00000+0  84119-4 0  9991
2 53807  53.2287 202.0389 0007380  68.6172 291.5620 15.37834262204691
YUNHAI-1 03             
1 53877U 22115A   26132.57005459  .00000266  00000+0  11392-3 0  9992
2 53877  98.5537 131.1708 0005447 140.2237 219.9347 14.32693048190419
CENTISPACE-1 S5         
1 54020U 22126A   26132.62320589  .00000480  00000+0  12959-3 0  9993
2 54020  55.0001 355.2685 0012306   1.6779 358.4255 14.62947781191833
CENTISPACE-1 S6         
1 54021U 22126B   26132.59894740  .00000381  00000+0  11214-3 0  9998
2 54021  55.0004 357.0674 0014155   0.5215 359.5791 14.62237961191796
OTB-3-GAZELLE           
1 54023U 22127A   26132.41061977  .00000092  00000+0  40605-4 0  9996
2 54023  98.3941 124.6621 0012012 299.7257  60.2737 14.42661163189208
ASO-S                   
1 54029U 22129A   26132.62805288  .00000107  00000+0  37503-4 0  9998
2 54029  98.2756 138.2176 0013854 196.8075 163.2663 14.52043748190267
HJ-2E                   
1 54035U 22132A   26132.65171050  .00004728  00000+0  21017-3 0  9990
2 54035  97.3808 137.6843 0022274 130.7834 229.5339 15.21772101199019
COSMOS 2561             
1 54109U 22137A   26132.16630242  .00008913  00000+0  15592-3 0  9997
2 54109  96.9225 192.5305 0010979 150.0386 210.1497 15.50778019200760
GONETS-M 23             
1 54150U 22139A   26132.60263654  .00000035  00000+0  17941-3 0  9990
2 54150  82.5098  10.4100 0020793 301.4303  58.4743 12.42889218161228
GONETS-M 24             
1 54151U 22139B   26132.65625844  .00000037  00000+0  19417-3 0  9991
2 54151  82.5001   9.4610 0016173 312.8003  47.1716 12.42889803161233
GONETS-M 25             
1 54152U 22139C   26132.64260785  .00000025  00000+0  11256-3 0  9990
2 54152  82.5075  10.1366 0020063 310.6047  49.3287 12.42889035161233
SKIF-D                  
1 54153U 22139D   26132.68196213  .00000031  00000+0  00000+0 0  9997
2 54153  89.9555  96.6784 0007416 214.8823 145.1054  5.00438680 62335
MATS                    
1 54227U 22147A   26132.55051301  .00002796  00000+0  20050-3 0  9993
2 54227  97.6827 134.3081 0011557 326.9090  33.1412 15.05129483192407
JILIN-1 GAOFEN 03D54    
1 54254U 22155D   26132.63785471  .00120141  00000+0  56492-3 0  9997
2 54254  97.6083 281.5171 0001933 165.3122 194.8203 15.82810350194651
EOS-6 (OCEANSAT-3)      
1 54361U 22158A   26132.62017522  .00000147  00000+0  52394-4 0  9994
2 54361  98.3520 231.2901 0002249  88.3043 271.8407 14.47019282182692
DONGPO 09               
1 54685U 22167D   26132.64271111  .00007128  00000+0  20888-3 0  9999
2 54685  97.6875 302.0929 0001462 223.2910 136.8218 15.35536713189993
DONGPO 08               
1 54686U 22167E   26132.62721553  .00006363  00000+0  20254-3 0  9995
2 54686  97.6835 299.4208 0006919 296.1316  63.9213 15.32938591189879
2022-167F               
1 54687U 22167F   26132.37134848  .00093653  00000+0  48207-3 0  9999
2 54687  97.6178 316.2148 0003214 182.0056 178.1199 15.80917289191150
